{
  "type": "FeatureCollection",
  "features": [
    {
      "type": "Feature",
      "properties": {
        "norad_id": 56759,
        "name": "NVS-01 (IRNSS-1J)",
        "group": "gnss",
        "lat": 2.578920306356324,
        "lon": -21.947758485164854,
        "alt_km": 35772.896502553536,
        "timestamp": "2025-12-23T07:45:09.649064+00:00",
        "meta_object_name": "NVS-01 (IRNSS-1J)",
        "meta_object_id": "2023-076A",
        "meta_epoch": "2025-12-22T18:54:58.881600",
        "meta_mean_motion": 1.00272437,
        "meta_eccentricity": 0.00087971,
        "meta_inclination": 2.595,
        "meta_ra_of_asc_node": 251.2426,
        "meta_arg_of_pericenter": 16.6931,
        "meta_mean_anomaly": 236.9605,
        "meta_ephemeris_type": 0,
        "meta_classification_type": "U",
        "meta_norad_cat_id": 56759,
        "meta_element_set_no": 999,
        "meta_rev_at_epoch": 934,
        "meta_bstar": 0,
        "meta_mean_motion_dot": -3.13e-06,
        "meta_mean_motion_ddot": 0,
        "tle_line1": "1 56759U 23076A   25356.78818150 -.00000313  00000+0  00000+0 0  9995",
        "tle_line2": "2 56759   2.5950 251.2426 0008797  16.6931 236.9605  1.00272437  9347"
      },
      "geometry": {
        "type": "Point",
        "coordinates": [
          -21.947758485164854,
          2.578920306356324
        ]
      }
    },
    {
      "type": "Feature",
      "properties": {
        "norad_id": 57517,
        "name": "COSMOS 2569 (703K)",
        "group": "gnss",
        "lat": 28.24489711481299,
        "lon": 92.92816153778364,
        "alt_km": 19133.422901367594,
        "timestamp": "2025-12-23T07:45:09.649090+00:00",
        "meta_object_name": "COSMOS 2569 (703K)",
        "meta_object_id": "2023-114A",
        "meta_epoch": "2025-12-22T08:14:44.480832",
        "meta_mean_motion": 2.13104025,
        "meta_eccentricity": 0.00108594,
        "meta_inclination": 65.199,
        "meta_ra_of_asc_node": 78.589,
        "meta_arg_of_pericenter": 287.0596,
        "meta_mean_anomaly": 72.8655,
        "meta_ephemeris_type": 0,
        "meta_classification_type": "U",
        "meta_norad_cat_id": 57517,
        "meta_element_set_no": 999,
        "meta_rev_at_epoch": 1849,
        "meta_bstar": 0,
        "meta_mean_motion_dot": -3e-08,
        "meta_mean_motion_ddot": 0,
        "tle_line1": "1 57517U 23114A   25356.34357038 -.00000003  00000+0  00000+0 0  9992",
        "tle_line2": "2 57517  65.1990  78.5890 0010859 287.0596  72.8655  2.13104025 18497"
      },
      "geometry": {
        "type": "Point",
        "coordinates": [
          92.92816153778364,
          28.24489711481299
        ]
      }
    },
    {
      "type": "Feature",
      "properties": {
        "norad_id": 58654,
        "name": "BEIDOU-3 M28 (C50)",
        "group": "gnss",
        "lat": 54.85529314140321,
        "lon": 171.80397568722606,
        "alt_km": 21529.644769287996,
        "timestamp": "2025-12-23T07:45:09.649104+00:00",
        "meta_object_name": "BEIDOU-3 M28 (C50)",
        "meta_object_id": "2023-207A",
        "meta_epoch": "2025-12-22T15:21:59.092992",
        "meta_mean_motion": 1.86229743,
        "meta_eccentricity": 0.00028082,
        "meta_inclination": 55.5929,
        "meta_ra_of_asc_node": 68.2662,
        "meta_arg_of_pericenter": 274.2836,
        "meta_mean_anomaly": 85.7355,
        "meta_ephemeris_type": 0,
        "meta_classification_type": "U",
        "meta_norad_cat_id": 58654,
        "meta_element_set_no": 999,
        "meta_rev_at_epoch": 1355,
        "meta_bstar": 0,
        "meta_mean_motion_dot": -3e-07,
        "meta_mean_motion_ddot": 0,
        "tle_line1": "1 58654U 23207A   25356.64026728 -.00000030  00000+0  00000+0 0  9990",
        "tle_line2": "2 58654  55.5929  68.2662 0002808 274.2836  85.7355  1.86229743 13554"
      },
      "geometry": {
        "type": "Point",
        "coordinates": [
          171.80397568722606,
          54.85529314140321
        ]
      }
    },
    {
      "type": "Feature",
      "properties": {
        "norad_id": 58655,
        "name": "BEIDOU-3 M26 (C48)",
        "group": "gnss",
        "lat": -41.52778619559332,
        "lon": -74.44626024906547,
        "alt_km": 21522.48406900336,
        "timestamp": "2025-12-23T07:45:09.649116+00:00",
        "meta_object_name": "BEIDOU-3 M26 (C48)",
        "meta_object_id": "2023-207B",
        "meta_epoch": "2025-12-22T10:30:28.326240",
        "meta_mean_motion": 1.86231247,
        "meta_eccentricity": 0.00041599,
        "meta_inclination": 55.5947,
        "meta_ra_of_asc_node": 68.2593,
        "meta_arg_of_pericenter": 259.3765,
        "meta_mean_anomaly": 100.6271,
        "meta_ephemeris_type": 0,
        "meta_classification_type": "U",
        "meta_norad_cat_id": 58655,
        "meta_element_set_no": 999,
        "meta_rev_at_epoch": 1353,
        "meta_bstar": 0,
        "meta_mean_motion_dot": -3e-07,
        "meta_mean_motion_ddot": 0,
        "tle_line1": "1 58655U 23207B   25356.43782785 -.00000030  00000+0  00000+0 0  9990",
        "tle_line2": "2 58655  55.5947  68.2593 0004159 259.3765 100.6271  1.86231247 13538"
      },
      "geometry": {
        "type": "Point",
        "coordinates": [
          -74.44626024906547,
          -41.52778619559332
        ]
      }
    },
    {
      "type": "Feature",
      "properties": {
        "norad_id": 59598,
        "name": "GSAT0225 (GALILEO 29)",
        "group": "gnss",
        "lat": -48.76634892267374,
        "lon": 53.05859536839016,
        "alt_km": 23229.21681694632,
        "timestamp": "2025-12-23T07:45:09.649127+00:00",
        "meta_object_name": "GSAT0225 (GALILEO 29)",
        "meta_object_id": "2024-079A",
        "meta_epoch": "2025-12-22T20:21:50.564160",
        "meta_mean_motion": 1.70474954,
        "meta_eccentricity": 0.00022188,
        "meta_inclination": 55.0069,
        "meta_ra_of_asc_node": 106.0132,
        "meta_arg_of_pericenter": 188.6953,
        "meta_mean_anomaly": 173.4251,
        "meta_ephemeris_type": 0,
        "meta_classification_type": "U",
        "meta_norad_cat_id": 59598,
        "meta_element_set_no": 999,
        "meta_rev_at_epoch": 1031,
        "meta_bstar": 0,
        "meta_mean_motion_dot": 8e-08,
        "meta_mean_motion_ddot": 0,
        "tle_line1": "1 59598U 24079A   25356.84850190  .00000008  00000+0  00000+0 0  9990",
        "tle_line2": "2 59598  55.0069 106.0132 0002218 188.6953 173.4251  1.70474954 10318"
      },
      "geometry": {
        "type": "Point",
        "coordinates": [
          53.05859536839016,
          -48.76634892267374
        ]
      }
    },
    {
      "type": "Feature",
      "properties": {
        "norad_id": 59600,
        "name": "GSAT0227 (GALILEO 30)",
        "group": "gnss",
        "lat": -0.7352412987823416,
        "lon": -73.48831783320611,
        "alt_km": 23218.691225964474,
        "timestamp": "2025-12-23T07:45:09.649141+00:00",
        "meta_object_name": "GSAT0227 (GALILEO 30)",
        "meta_object_id": "2024-079C",
        "meta_epoch": "2025-12-21T20:31:35.455872",
        "meta_mean_motion": 1.70474868,
        "meta_eccentricity": 0.00028355,
        "meta_inclination": 55.0019,
        "meta_ra_of_asc_node": 106.0394,
        "meta_arg_of_pericenter": 117.3615,
        "meta_mean_anomaly": 242.6419,
        "meta_ephemeris_type": 0,
        "meta_classification_type": "U",
        "meta_norad_cat_id": 59600,
        "meta_element_set_no": 999,
        "meta_rev_at_epoch": 1034,
        "meta_bstar": 0,
        "meta_mean_motion_dot": 4e-08,
        "meta_mean_motion_ddot": 0,
        "tle_line1": "1 59600U 24079C   25355.85527148  .00000004  00000+0  00000+0 0  9994",
        "tle_line2": "2 59600  55.0019 106.0394 0002835 117.3615 242.6419  1.70474868 10348"
      },
      "geometry": {
        "type": "Point",
        "coordinates": [
          -73.48831783320611,
          -0.7352412987823416
        ]
      }
    },
    {
      "type": "Feature",
      "properties": {
        "norad_id": 61182,
        "name": "GSAT0232 (GALILEO 32)",
        "group": "gnss",
        "lat": 12.436754033228473,
        "lon": -125.03579465514602,
        "alt_km": 23226.369510453613,
        "timestamp": "2025-12-23T07:45:09.649152+00:00",
        "meta_object_name": "GSAT0232 (GALILEO 32)",
        "meta_object_id": "2024-167A",
        "meta_epoch": "2025-12-22T11:14:58.318656",
        "meta_mean_motion": 1.70473576,
        "meta_eccentricity": 0.00018839,
        "meta_inclination": 55.2381,
        "meta_ra_of_asc_node": 226.1639,
        "meta_arg_of_pericenter": 204.0949,
        "meta_mean_anomaly": 6.8996,
        "meta_ephemeris_type": 0,
        "meta_classification_type": "U",
        "meta_norad_cat_id": 61182,
        "meta_element_set_no": 999,
        "meta_rev_at_epoch": 786,
        "meta_bstar": 0,
        "meta_mean_motion_dot": 7.4e-07,
        "meta_mean_motion_ddot": 0,
        "tle_line1": "1 61182U 24167A   25356.46873054  .00000074  00000+0  00000+0 0  9995",
        "tle_line2": "2 61182  55.2381 226.1639 0001883 204.0949   6.8996  1.70473576  7860"
      },
      "geometry": {
        "type": "Point",
        "coordinates": [
          -125.03579465514602,
          12.436754033228473
        ]
      }
    }
  ]
}